ONEWEB-0707             
1 61612U 24188U   25122.95001939  .00000590  00000+0  16544-2 0  9992
2 61612  87.8788 118.0337 0002503 103.9462 256.1943 13.10390491 29598
ONEWEB-0708             
1 61613U 24188V   25122.73919595  .00000656  00000+0  18423-2 0  9996
2 61613  87.8842 118.0585 0002589 104.2781 255.8633 13.10373666 29549
